{"type":"FeatureCollection","bbox":[140.37,37.351,140.398,37.379],"features":[{"type":"Feature","id":"node/3098056716","properties":{"kind":"tree","category":"tree","version":1,"timestamp":"2014-09-27T00:34:06Z","natural":"tree","source":"Bing"},"geometry":{"type":"Point","coordinates":[140.3733894,37.3701715]}},{"type":"Feature","id":"node/3098056719","properties":{"kind":"tree","category":"tree","version":1,"timestamp":"2014-09-27T00:34:06Z","natural":"tree","source":"Bing"},"geometry":{"type":"Point","coordinates":[140.3731126,37.3702002]}},{"type":"Feature","id":"node/3098056722","properties":{"kind":"tree","category":"tree","version":1,"timestamp":"2014-09-27T00:34:06Z","natural":"tree","source":"Bing"},"geometry":{"type":"Point","coordinates":[140.3749914,37.3701872]}},{"type":"Feature","id":"node/3098056724","properties":{"kind":"tree","category":"tree","version":1,"timestamp":"2014-09-27T00:34:06Z","natural":"tree","source":"Bing"},"geometry":{"type":"Point","coordinates":[140.3733405,37.3702326]}},{"type":"Feature","id":"node/3098056725","properties":{"kind":"tree","category":"tree","version":1,"timestamp":"2014-09-27T00:34:06Z","natural":"tree","source":"Bing"},"geometry":{"type":"Point","coordinates":[140.3734122,37.370229]}},{"type":"Feature","id":"node/3098056727","properties":{"kind":"tree","category":"tree","version":1,"timestamp":"2014-09-27T00:34:06Z","natural":"tree","source":"Bing"},"geometry":{"type":"Point","coordinates":[140.3747998,37.3702308]}},{"type":"Feature","id":"node/3098056728","properties":{"kind":"tree","category":"tree","version":1,"timestamp":"2014-09-27T00:34:06Z","natural":"tree","source":"Bing"},"geometry":{"type":"Point","coordinates":[140.3749043,37.3702149]}},{"type":"Feature","id":"node/3098056780","properties":{"kind":"tree","category":"tree","version":1,"timestamp":"2014-09-27T00:33:58Z","natural":"tree","source":"Bing"},"geometry":{"type":"Point","coordinates":[140.3737005,37.368162]}},{"type":"Feature","id":"node/3098056783","properties":{"kind":"tree","category":"tree","version":1,"timestamp":"2014-09-27T00:33:58Z","natural":"tree","source":"Bing"},"geometry":{"type":"Point","coordinates":[140.3725222,37.3681821]}},{"type":"Feature","id":"node/3098056785","properties":{"kind":"tree","category":"tree","version":1,"timestamp":"2014-09-27T00:33:58Z","natural":"tree","source":"Bing"},"geometry":{"type":"Point","coordinates":[140.3725412,37.3682257]}},{"type":"Feature","id":"node/3098056786","properties":{"kind":"tree","category":"tree","version":1,"timestamp":"2014-09-27T00:33:58Z","natural":"tree","source":"Bing"},"geometry":{"type":"Point","coordinates":[140.3737381,37.3682326]}},{"type":"Feature","id":"node/3098056788","properties":{"kind":"tree","category":"tree","version":1,"timestamp":"2014-09-27T00:33:58Z","natural":"tree","source":"Bing"},"geometry":{"type":"Point","coordinates":[140.3724884,37.3682441]}},{"type":"Feature","id":"node/3098056791","properties":{"kind":"tree","category":"tree","version":1,"timestamp":"2014-09-27T00:33:58Z","natural":"tree","source":"Bing"},"geometry":{"type":"Point","coordinates":[140.372562,37.3682769]}},{"type":"Feature","id":"node/3098056792","properties":{"kind":"tree","category":"tree","version":1,"timestamp":"2014-09-27T00:33:58Z","natural":"tree","source":"Bing"},"geometry":{"type":"Point","coordinates":[140.3737861,37.3682906]}},{"type":"Feature","id":"node/3098056794","properties":{"kind":"tree","category":"tree","version":1,"timestamp":"2014-09-27T00:33:58Z","natural":"tree","source":"Bing"},"geometry":{"type":"Point","coordinates":[140.3725942,37.3683341]}},{"type":"Feature","id":"node/3098056795","properties":{"kind":"tree","category":"tree","version":1,"timestamp":"2014-09-27T00:33:58Z","natural":"tree","source":"Bing"},"geometry":{"type":"Point","coordinates":[140.373824,37.3683372]}},{"type":"Feature","id":"node/3098056798","properties":{"kind":"tree","category":"tree","version":1,"timestamp":"2014-09-27T00:33:58Z","natural":"tree","source":"Bing"},"geometry":{"type":"Point","coordinates":[140.3725245,37.3683506]}},{"type":"Feature","id":"node/3098056800","properties":{"kind":"tree","category":"tree","version":1,"timestamp":"2014-09-27T00:33:58Z","natural":"tree","source":"Bing"},"geometry":{"type":"Point","coordinates":[140.372615,37.3683868]}},{"type":"Feature","id":"node/3098056801","properties":{"kind":"tree","category":"tree","version":1,"timestamp":"2014-09-27T00:33:58Z","natural":"tree","source":"Bing"},"geometry":{"type":"Point","coordinates":[140.3738486,37.3683974]}},{"type":"Feature","id":"node/3098056802","properties":{"kind":"tree","category":"tree","version":1,"timestamp":"2014-09-27T00:33:58Z","natural":"tree","source":"Bing"},"geometry":{"type":"Point","coordinates":[140.3726359,37.3684305]}},{"type":"Feature","id":"node/3098056804","properties":{"kind":"tree","category":"tree","version":1,"timestamp":"2014-09-27T00:33:58Z","natural":"tree","source":"Bing"},"geometry":{"type":"Point","coordinates":[140.372585,37.3684549]}},{"type":"Feature","id":"node/3098056806","properties":{"kind":"tree","category":"tree","version":1,"timestamp":"2014-09-27T00:33:59Z","natural":"tree","source":"Bing"},"geometry":{"type":"Point","coordinates":[140.3723737,37.3684989]}},{"type":"Feature","id":"node/3098056807","properties":{"kind":"tree","category":"tree","version":1,"timestamp":"2014-09-27T00:33:59Z","natural":"tree","source":"Bing"},"geometry":{"type":"Point","coordinates":[140.3726643,37.3684937]}},{"type":"Feature","id":"node/3098056809","properties":{"kind":"tree","category":"tree","version":1,"timestamp":"2014-09-27T00:33:59Z","natural":"tree","source":"Bing"},"geometry":{"type":"Point","coordinates":[140.3726145,37.3685401]}},{"type":"Feature","id":"node/3098056810","properties":{"kind":"tree","category":"tree","version":1,"timestamp":"2014-09-27T00:33:59Z","natural":"tree","source":"Bing"},"geometry":{"type":"Point","coordinates":[140.3739228,37.3685248]}},{"type":"Feature","id":"node/3098056815","properties":{"kind":"tree","category":"tree","version":1,"timestamp":"2014-09-27T00:33:59Z","natural":"tree","source":"Bing"},"geometry":{"type":"Point","coordinates":[140.3726832,37.3685434]}},{"type":"Feature","id":"node/3098056817","properties":{"kind":"tree","category":"tree","version":1,"timestamp":"2014-09-27T00:33:59Z","natural":"tree","source":"Bing"},"geometry":{"type":"Point","coordinates":[140.3724005,37.3685798]}},{"type":"Feature","id":"node/3098056818","properties":{"kind":"tree","category":"tree","version":1,"timestamp":"2014-09-27T00:33:59Z","natural":"tree","source":"Bing"},"geometry":{"type":"Point","coordinates":[140.3727022,37.3685961]}},{"type":"Feature","id":"node/3098056820","properties":{"kind":"tree","category":"tree","version":1,"timestamp":"2014-09-27T00:33:59Z","natural":"tree","source":"Bing"},"geometry":{"type":"Point","coordinates":[140.3739433,37.3685826]}},{"type":"Feature","id":"node/3098056826","properties":{"kind":"tree","category":"tree","version":1,"timestamp":"2014-09-27T00:33:59Z","natural":"tree","source":"Bing"},"geometry":{"type":"Point","coordinates":[140.3739698,37.3686233]}},{"type":"Feature","id":"node/3098056828","properties":{"kind":"tree","category":"tree","version":1,"timestamp":"2014-09-27T00:33:59Z","natural":"tree","source":"Bing"},"geometry":{"type":"Point","coordinates":[140.372652,37.3686338]}},{"type":"Feature","id":"node/3098058246","properties":{"kind":"tree","category":"tree","version":1,"timestamp":"2014-09-27T00:33:51Z","natural":"tree","source":"Bing"},"geometry":{"type":"Point","coordinates":[140.3723787,37.3663193]}},{"type":"Feature","id":"node/3098058247","properties":{"kind":"tree","category":"tree","version":1,"timestamp":"2014-09-27T00:33:51Z","natural":"tree","source":"Bing"},"geometry":{"type":"Point","coordinates":[140.3724511,37.3663044]}},{"type":"Feature","id":"node/3098058248","properties":{"kind":"tree","category":"tree","version":1,"timestamp":"2014-09-27T00:33:51Z","natural":"tree","source":"Bing"},"geometry":{"type":"Point","coordinates":[140.37251,37.366298]}},{"type":"Feature","id":"node/3098058250","properties":{"kind":"tree","category":"tree","version":1,"timestamp":"2014-09-27T00:33:52Z","natural":"tree","source":"Bing"},"geometry":{"type":"Point","coordinates":[140.3723292,37.3663332]}},{"type":"Feature","id":"node/3098058251","properties":{"kind":"tree","category":"tree","version":1,"timestamp":"2014-09-27T00:33:52Z","natural":"tree","source":"Bing"},"geometry":{"type":"Point","coordinates":[140.3725797,37.3663289]}},{"type":"Feature","id":"node/3098058254","properties":{"kind":"tree","category":"tree","version":1,"timestamp":"2014-09-27T00:33:52Z","natural":"tree","source":"Bing"},"geometry":{"type":"Point","coordinates":[140.3721055,37.3663949]}},{"type":"Feature","id":"node/3098058255","properties":{"kind":"tree","category":"tree","version":1,"timestamp":"2014-09-27T00:33:52Z","natural":"tree","source":"Bing"},"geometry":{"type":"Point","coordinates":[140.3721912,37.3663779]}},{"type":"Feature","id":"node/3098058256","properties":{"kind":"tree","category":"tree","version":1,"timestamp":"2014-09-27T00:33:52Z","natural":"tree","source":"Bing"},"geometry":{"type":"Point","coordinates":[140.3726078,37.3663843]}},{"type":"Feature","id":"node/3098058258","properties":{"kind":"tree","category":"tree","version":1,"timestamp":"2014-09-27T00:33:52Z","natural":"tree","source":"Bing"},"geometry":{"type":"Point","coordinates":[140.3720345,37.3664141]}},{"type":"Feature","id":"node/3098058259","properties":{"kind":"tree","category":"tree","version":1,"timestamp":"2014-09-27T00:33:52Z","natural":"tree","source":"Bing"},"geometry":{"type":"Point","coordinates":[140.3719474,37.366446]}},{"type":"Feature","id":"node/3098058260","properties":{"kind":"tree","category":"tree","version":1,"timestamp":"2014-09-27T00:33:52Z","natural":"tree","source":"Bing"},"geometry":{"type":"Point","coordinates":[140.3719823,37.3664354]}},{"type":"Feature","id":"node/3098058261","properties":{"kind":"tree","category":"tree","version":1,"timestamp":"2014-09-27T00:33:52Z","natural":"tree","source":"Bing"},"geometry":{"type":"Point","coordinates":[140.3726239,37.3664418]}},{"type":"Feature","id":"node/3098058263","properties":{"kind":"tree","category":"tree","version":1,"timestamp":"2014-09-27T00:33:52Z","natural":"tree","source":"Bing"},"geometry":{"type":"Point","coordinates":[140.3718872,37.3664599]}},{"type":"Feature","id":"node/3098058265","properties":{"kind":"tree","category":"tree","version":1,"timestamp":"2014-09-27T00:33:52Z","natural":"tree","source":"Bing"},"geometry":{"type":"Point","coordinates":[140.3726319,37.3665024]}},{"type":"Feature","id":"node/3098058268","properties":{"kind":"tree","category":"tree","version":1,"timestamp":"2014-09-27T00:33:52Z","natural":"tree","source":"Bing"},"geometry":{"type":"Point","coordinates":[140.3718345,37.3665494]}},{"type":"Feature","id":"node/3098058269","properties":{"kind":"tree","category":"tree","version":1,"timestamp":"2014-09-27T00:33:52Z","natural":"tree","source":"Bing"},"geometry":{"type":"Point","coordinates":[140.3726453,37.3665418]}},{"type":"Feature","id":"node/3098058272","properties":{"kind":"tree","category":"tree","version":1,"timestamp":"2014-09-27T00:33:52Z","natural":"tree","source":"Bing"},"geometry":{"type":"Point","coordinates":[140.3718479,37.3666122]}},{"type":"Feature","id":"node/3098058273","properties":{"kind":"tree","category":"tree","version":1,"timestamp":"2014-09-27T00:33:52Z","natural":"tree","source":"Bing"},"geometry":{"type":"Point","coordinates":[140.3726667,37.3666014]}},{"type":"Feature","id":"node/3098058277","properties":{"kind":"tree","category":"tree","version":1,"timestamp":"2014-09-27T00:33:52Z","natural":"tree","source":"Bing"},"geometry":{"type":"Point","coordinates":[140.3718787,37.3666675]}},{"type":"Feature","id":"node/3098058278","properties":{"kind":"tree","category":"tree","version":1,"timestamp":"2014-09-27T00:33:52Z","natural":"tree","source":"Bing"},"geometry":{"type":"Point","coordinates":[140.3726828,37.3666579]}},{"type":"Feature","id":"node/3098058279","properties":{"kind":"tree","category":"tree","version":1,"timestamp":"2014-09-27T00:33:52Z","natural":"tree","source":"Bing"},"geometry":{"type":"Point","coordinates":[140.3718191,37.3666978]}},{"type":"Feature","id":"node/3098058282","properties":{"kind":"tree","category":"tree","version":1,"timestamp":"2014-09-27T00:33:52Z","natural":"tree","source":"Bing"},"geometry":{"type":"Point","coordinates":[140.3719046,37.3667133]}},{"type":"Feature","id":"node/3098058284","properties":{"kind":"tree","category":"tree","version":1,"timestamp":"2014-09-27T00:33:53Z","natural":"tree","source":"Bing"},"geometry":{"type":"Point","coordinates":[140.3727096,37.3667185]}},{"type":"Feature","id":"node/3098058287","properties":{"kind":"tree","category":"tree","version":1,"timestamp":"2014-09-27T00:33:53Z","natural":"tree","source":"Bing"},"geometry":{"type":"Point","coordinates":[140.3718475,37.3667775]}},{"type":"Feature","id":"node/3098058288","properties":{"kind":"tree","category":"tree","version":1,"timestamp":"2014-09-27T00:33:53Z","natural":"tree","source":"Bing"},"geometry":{"type":"Point","coordinates":[140.3719217,37.3667766]}},{"type":"Feature","id":"node/3098058289","properties":{"kind":"tree","category":"tree","version":1,"timestamp":"2014-09-27T00:33:53Z","natural":"tree","source":"Bing"},"geometry":{"type":"Point","coordinates":[140.3727417,37.3667643]}},{"type":"Feature","id":"node/3098058291","properties":{"kind":"tree","category":"tree","version":1,"timestamp":"2014-09-27T00:33:53Z","natural":"tree","source":"Bing"},"geometry":{"type":"Point","coordinates":[140.3716643,37.3668357]}},{"type":"Feature","id":"node/3098058292","properties":{"kind":"tree","category":"tree","version":1,"timestamp":"2014-09-27T00:33:53Z","natural":"tree","source":"Bing"},"geometry":{"type":"Point","coordinates":[140.371952,37.3668323]}},{"type":"Feature","id":"node/3098058293","properties":{"kind":"tree","category":"tree","version":1,"timestamp":"2014-09-27T00:33:53Z","natural":"tree","source":"Bing"},"geometry":{"type":"Point","coordinates":[140.3728096,37.3668383]}},{"type":"Feature","id":"node/3098058295","properties":{"kind":"tree","category":"tree","version":1,"timestamp":"2014-09-27T00:33:53Z","natural":"tree","source":"Bing"},"geometry":{"type":"Point","coordinates":[140.3718854,37.3668528]}},{"type":"Feature","id":"node/3098058296","properties":{"kind":"tree","category":"tree","version":1,"timestamp":"2014-09-27T00:33:53Z","natural":"tree","source":"Bing"},"geometry":{"type":"Point","coordinates":[140.3719671,37.366888]}},{"type":"Feature","id":"node/3098058297","properties":{"kind":"tree","category":"tree","version":1,"timestamp":"2014-09-27T00:33:53Z","natural":"tree","source":"Bing"},"geometry":{"type":"Point","coordinates":[140.3728427,37.3669007]}},{"type":"Feature","id":"node/3098058299","properties":{"kind":"tree","category":"tree","version":1,"timestamp":"2014-09-27T00:33:53Z","natural":"tree","source":"Bing"},"geometry":{"type":"Point","coordinates":[140.3719917,37.3669407]}},{"type":"Feature","id":"node/3098058300","properties":{"kind":"tree","category":"tree","version":1,"timestamp":"2014-09-27T00:33:53Z","natural":"tree","source":"Bing"},"geometry":{"type":"Point","coordinates":[140.3728835,37.3669542]}},{"type":"Feature","id":"node/3098058301","properties":{"kind":"tree","category":"tree","version":1,"timestamp":"2014-09-27T00:33:53Z","natural":"tree","source":"Bing"},"geometry":{"type":"Point","coordinates":[140.3717166,37.3669677]}},{"type":"Feature","id":"node/3098058302","properties":{"kind":"tree","category":"tree","version":1,"timestamp":"2014-09-27T00:33:53Z","natural":"tree","source":"Bing"},"geometry":{"type":"Point","coordinates":[140.3719271,37.3669672]}},{"type":"Feature","id":"node/3098058303","properties":{"kind":"tree","category":"tree","version":1,"timestamp":"2014-09-27T00:33:53Z","natural":"tree","source":"Bing"},"geometry":{"type":"Point","coordinates":[140.3720126,37.3669964]}},{"type":"Feature","id":"node/3098058305","properties":{"kind":"tree","category":"tree","version":1,"timestamp":"2014-09-27T00:33:53Z","natural":"tree","source":"Bing"},"geometry":{"type":"Point","coordinates":[140.372041,37.3670415]}},{"type":"Feature","id":"node/3098058307","properties":{"kind":"tree","category":"tree","version":1,"timestamp":"2014-09-27T00:33:53Z","natural":"tree","source":"Bing"},"geometry":{"type":"Point","coordinates":[140.3719593,37.3670546]}},{"type":"Feature","id":"node/3098058308","properties":{"kind":"tree","category":"tree","version":1,"timestamp":"2014-09-27T00:33:53Z","natural":"tree","source":"Bing"},"geometry":{"type":"Point","coordinates":[140.3729747,37.3670694]}},{"type":"Feature","id":"node/3098058309","properties":{"kind":"tree","category":"tree","version":1,"timestamp":"2014-09-27T00:33:53Z","natural":"tree","source":"Bing"},"geometry":{"type":"Point","coordinates":[140.3717608,37.3670901]}},{"type":"Feature","id":"node/3098058310","properties":{"kind":"tree","category":"tree","version":1,"timestamp":"2014-09-27T00:33:53Z","natural":"tree","source":"Bing"},"geometry":{"type":"Point","coordinates":[140.3720572,37.3670961]}},{"type":"Feature","id":"node/3098058311","properties":{"kind":"tree","category":"tree","version":1,"timestamp":"2014-09-27T00:33:53Z","natural":"tree","source":"Bing"},"geometry":{"type":"Point","coordinates":[140.3730055,37.3671141]}},{"type":"Feature","id":"node/3098058313","properties":{"kind":"tree","category":"tree","version":1,"timestamp":"2014-09-27T00:33:53Z","natural":"tree","source":"Bing"},"geometry":{"type":"Point","coordinates":[140.3720085,37.3671494]}},{"type":"Feature","id":"node/3098058316","properties":{"kind":"tree","category":"tree","version":1,"timestamp":"2014-09-27T00:33:53Z","natural":"tree","source":"Bing"},"geometry":{"type":"Point","coordinates":[140.3718063,37.3671764]}},{"type":"Feature","id":"node/3098058317","properties":{"kind":"tree","category":"tree","version":1,"timestamp":"2014-09-27T00:33:53Z","natural":"tree","source":"Bing"},"geometry":{"type":"Point","coordinates":[140.3720818,37.3671533]}},{"type":"Feature","id":"node/3098058318","properties":{"kind":"tree","category":"tree","version":1,"timestamp":"2014-09-27T00:33:53Z","natural":"tree","source":"Bing"},"geometry":{"type":"Point","coordinates":[140.3730309,37.3671546]}},{"type":"Feature","id":"node/3098058321","properties":{"kind":"tree","category":"tree","version":1,"timestamp":"2014-09-27T00:33:54Z","natural":"tree","source":"Bing"},"geometry":{"type":"Point","coordinates":[140.3730497,37.3671982]}},{"type":"Feature","id":"node/3098058326","properties":{"kind":"tree","category":"tree","version":1,"timestamp":"2014-09-27T00:33:54Z","natural":"tree","source":"Bing"},"geometry":{"type":"Point","coordinates":[140.3730765,37.3672334]}},{"type":"Feature","id":"node/3098058429","properties":{"kind":"tree","category":"tree","version":1,"timestamp":"2014-09-27T00:33:54Z","natural":"tree","source":"Bing"},"geometry":{"type":"Point","coordinates":[140.3718331,37.3672605]}},{"type":"Feature","id":"node/3098058432","properties":{"kind":"tree","category":"tree","version":1,"timestamp":"2014-09-27T00:33:54Z","natural":"tree","source":"Bing"},"geometry":{"type":"Point","coordinates":[140.3731167,37.3672802]}},{"type":"Feature","id":"node/3098058436","properties":{"kind":"tree","category":"tree","version":1,"timestamp":"2014-09-27T00:33:54Z","natural":"tree","source":"Bing"},"geometry":{"type":"Point","coordinates":[140.3721481,37.3673039]}},{"type":"Feature","id":"node/3098058437","properties":{"kind":"tree","category":"tree","version":1,"timestamp":"2014-09-27T00:33:54Z","natural":"tree","source":"Bing"},"geometry":{"type":"Point","coordinates":[140.3731394,37.3673122]}},{"type":"Feature","id":"node/3098058442","properties":{"kind":"tree","category":"tree","version":1,"timestamp":"2014-09-27T00:33:54Z","natural":"tree","source":"Bing"},"geometry":{"type":"Point","coordinates":[140.3721689,37.3673641]}},{"type":"Feature","id":"node/3098058443","properties":{"kind":"tree","category":"tree","version":1,"timestamp":"2014-09-27T00:33:54Z","natural":"tree","source":"Bing"},"geometry":{"type":"Point","coordinates":[140.3731769,37.3673643]}},{"type":"Feature","id":"node/3098058447","properties":{"kind":"tree","category":"tree","version":1,"timestamp":"2014-09-27T00:33:54Z","natural":"tree","source":"Bing"},"geometry":{"type":"Point","coordinates":[140.3721042,37.3673753]}},{"type":"Feature","id":"node/3098058451","properties":{"kind":"tree","category":"tree","version":1,"timestamp":"2014-09-27T00:33:54Z","natural":"tree","source":"Bing"},"geometry":{"type":"Point","coordinates":[140.3719285,37.3674265]}},{"type":"Feature","id":"node/3098058452","properties":{"kind":"tree","category":"tree","version":1,"timestamp":"2014-09-27T00:33:54Z","natural":"tree","source":"Bing"},"geometry":{"type":"Point","coordinates":[140.3721954,37.3674168]}},{"type":"Feature","id":"node/3098058457","properties":{"kind":"tree","category":"tree","version":1,"timestamp":"2014-09-27T00:33:54Z","natural":"tree","source":"Bing"},"geometry":{"type":"Point","coordinates":[140.3721363,37.3674562]}},{"type":"Feature","id":"node/3098058458","properties":{"kind":"tree","category":"tree","version":1,"timestamp":"2014-09-27T00:33:54Z","natural":"tree","source":"Bing"},"geometry":{"type":"Point","coordinates":[140.3732213,37.3674349]}},{"type":"Feature","id":"node/3098058464","properties":{"kind":"tree","category":"tree","version":1,"timestamp":"2014-09-27T00:33:54Z","natural":"tree","source":"Bing"},"geometry":{"type":"Point","coordinates":[140.3722201,37.367471]}},{"type":"Feature","id":"node/3098058465","properties":{"kind":"tree","category":"tree","version":1,"timestamp":"2014-09-27T00:33:54Z","natural":"tree","source":"Bing"},"geometry":{"type":"Point","coordinates":[140.3732648,37.3674815]}},{"type":"Feature","id":"node/3098058467","properties":{"kind":"tree","category":"tree","version":1,"timestamp":"2014-09-27T00:33:55Z","natural":"tree","source":"Bing"},"geometry":{"type":"Point","coordinates":[140.3719512,37.3675138]}},{"type":"Feature","id":"node/3098058468","properties":{"kind":"tree","category":"tree","version":1,"timestamp":"2014-09-27T00:33:55Z","natural":"tree","source":"Bing"},"geometry":{"type":"Point","coordinates":[140.3722409,37.3675222]}},{"type":"Feature","id":"node/3098058469","properties":{"kind":"tree","category":"tree","version":1,"timestamp":"2014-09-27T00:33:55Z","natural":"tree","source":"Bing"},"geometry":{"type":"Point","coordinates":[140.373297,37.3675297]}},{"type":"Feature","id":"node/3098058474","properties":{"kind":"tree","category":"tree","version":1,"timestamp":"2014-09-27T00:33:55Z","natural":"tree","source":"Bing"},"geometry":{"type":"Point","coordinates":[140.3721792,37.3675531]}},{"type":"Feature","id":"node/3098058477","properties":{"kind":"tree","category":"tree","version":1,"timestamp":"2014-09-27T00:33:55Z","natural":"tree","source":"Bing"},"geometry":{"type":"Point","coordinates":[140.372258,37.3675899]}},{"type":"Feature","id":"node/3098058479","properties":{"kind":"tree","category":"tree","version":1,"timestamp":"2014-09-27T00:33:55Z","natural":"tree","source":"Bing"},"geometry":{"type":"Point","coordinates":[140.3733254,37.3675749]}},{"type":"Feature","id":"node/3098058481","properties":{"kind":"tree","category":"tree","version":1,"timestamp":"2014-09-27T00:33:55Z","natural":"tree","source":"Bing"},"geometry":{"type":"Point","coordinates":[140.3719872,37.3676041]}},{"type":"Feature","id":"node/3098058485","properties":{"kind":"tree","category":"tree","version":1,"timestamp":"2014-09-27T00:33:55Z","natural":"tree","source":"Bing"},"geometry":{"type":"Point","coordinates":[140.372214,37.3676415]}},{"type":"Feature","id":"node/3098058486","properties":{"kind":"tree","category":"tree","version":1,"timestamp":"2014-09-27T00:33:55Z","natural":"tree","source":"Bing"},"geometry":{"type":"Point","coordinates":[140.3722864,37.3676351]}},{"type":"Feature","id":"node/3098058487","properties":{"kind":"tree","category":"tree","version":1,"timestamp":"2014-09-27T00:33:55Z","natural":"tree","source":"Bing"},"geometry":{"type":"Point","coordinates":[140.3733823,37.3676456]}},{"type":"Feature","id":"node/3098058488","properties":{"kind":"tree","category":"tree","version":1,"timestamp":"2014-09-27T00:33:55Z","natural":"tree","source":"Bing"},"geometry":{"type":"Point","coordinates":[140.3723205,37.3676938]}},{"type":"Feature","id":"node/3098058489","properties":{"kind":"tree","category":"tree","version":1,"timestamp":"2014-09-27T00:33:55Z","natural":"tree","source":"Bing"},"geometry":{"type":"Point","coordinates":[140.3722567,37.367737]}},{"type":"Feature","id":"node/3098058490","properties":{"kind":"tree","category":"tree","version":1,"timestamp":"2014-09-27T00:33:55Z","natural":"tree","source":"Bing"},"geometry":{"type":"Point","coordinates":[140.3723366,37.367744]}},{"type":"Feature","id":"node/3098058495","properties":{"kind":"tree","category":"tree","version":1,"timestamp":"2014-09-27T00:33:55Z","natural":"tree","source":"Bing"},"geometry":{"type":"Point","coordinates":[140.3723669,37.3678012]}},{"type":"Feature","id":"node/3098058498","properties":{"kind":"tree","category":"tree","version":1,"timestamp":"2014-09-27T00:33:55Z","natural":"tree","source":"Bing"},"geometry":{"type":"Point","coordinates":[140.3722908,37.3678198]}},{"type":"Feature","id":"node/3098058499","properties":{"kind":"tree","category":"tree","version":1,"timestamp":"2014-09-27T00:33:55Z","natural":"tree","source":"Bing"},"geometry":{"type":"Point","coordinates":[140.3734808,37.3678444]}},{"type":"Feature","id":"node/3098058501","properties":{"kind":"tree","category":"tree","version":1,"timestamp":"2014-09-27T00:33:55Z","natural":"tree","source":"Bing"},"geometry":{"type":"Point","coordinates":[140.372129,37.3678912]}},{"type":"Feature","id":"node/3098058502","properties":{"kind":"tree","category":"tree","version":1,"timestamp":"2014-09-27T00:33:55Z","natural":"tree","source":"Bing"},"geometry":{"type":"Point","coordinates":[140.3723991,37.3678885]}},{"type":"Feature","id":"node/3098058504","properties":{"kind":"tree","category":"tree","version":1,"timestamp":"2014-09-27T00:33:55Z","natural":"tree","source":"Bing"},"geometry":{"type":"Point","coordinates":[140.3735262,37.3679031]}},{"type":"Feature","id":"node/3098058507","properties":{"kind":"tree","category":"tree","version":1,"timestamp":"2014-09-27T00:33:56Z","natural":"tree","source":"Bing"},"geometry":{"type":"Point","coordinates":[140.37234,37.3679478]}},{"type":"Feature","id":"node/3098058508","properties":{"kind":"tree","category":"tree","version":1,"timestamp":"2014-09-27T00:33:56Z","natural":"tree","source":"Bing"},"geometry":{"type":"Point","coordinates":[140.3724162,37.3679457]}},{"type":"Feature","id":"node/3098058509","properties":{"kind":"tree","category":"tree","version":1,"timestamp":"2014-09-27T00:33:56Z","natural":"tree","source":"Bing"},"geometry":{"type":"Point","coordinates":[140.373566,37.3679588]}},{"type":"Feature","id":"node/3098058511","properties":{"kind":"tree","category":"tree","version":1,"timestamp":"2014-09-27T00:33:56Z","natural":"tree","source":"Bing"},"geometry":{"type":"Point","coordinates":[140.3724502,37.3680059]}},{"type":"Feature","id":"node/3098058512","properties":{"kind":"tree","category":"tree","version":1,"timestamp":"2014-09-27T00:33:56Z","natural":"tree","source":"Bing"},"geometry":{"type":"Point","coordinates":[140.3735963,37.3680085]}},{"type":"Feature","id":"node/3098058513","properties":{"kind":"tree","category":"tree","version":1,"timestamp":"2014-09-27T00:33:56Z","natural":"tree","source":"Bing"},"geometry":{"type":"Point","coordinates":[140.3724749,37.3680647]}},{"type":"Feature","id":"node/3098058514","properties":{"kind":"tree","category":"tree","version":1,"timestamp":"2014-09-27T00:33:56Z","natural":"tree","source":"Bing"},"geometry":{"type":"Point","coordinates":[140.3736361,37.3680657]}},{"type":"Feature","id":"node/3098058515","properties":{"kind":"tree","category":"tree","version":1,"timestamp":"2014-09-27T00:33:56Z","natural":"tree","source":"Bing"},"geometry":{"type":"Point","coordinates":[140.3724134,37.3680759]}},{"type":"Feature","id":"node/3098058517","properties":{"kind":"tree","category":"tree","version":1,"timestamp":"2014-09-27T00:33:56Z","natural":"tree","source":"Bing"},"geometry":{"type":"Point","coordinates":[140.3724995,37.3681113]}},{"type":"Feature","id":"node/3098058519","properties":{"kind":"tree","category":"tree","version":1,"timestamp":"2014-09-27T00:33:56Z","natural":"tree","source":"Bing"},"geometry":{"type":"Point","coordinates":[140.3736797,37.3681259]}},{"type":"Feature","id":"node/3098058521","properties":{"kind":"tree","category":"tree","version":1,"timestamp":"2014-09-27T00:33:56Z","natural":"tree","source":"Bing"},"geometry":{"type":"Point","coordinates":[140.3724522,37.3681536]}},{"type":"Feature","id":"node/3098058529","properties":{"kind":"tree","category":"tree","version":1,"timestamp":"2014-09-27T00:33:59Z","natural":"tree","source":"Bing"},"geometry":{"type":"Point","coordinates":[140.3727401,37.3686428]}},{"type":"Feature","id":"node/3098058531","properties":{"kind":"tree","category":"tree","version":1,"timestamp":"2014-09-27T00:33:59Z","natural":"tree","source":"Bing"},"geometry":{"type":"Point","coordinates":[140.3724393,37.3686585]}},{"type":"Feature","id":"node/3098058533","properties":{"kind":"tree","category":"tree","version":1,"timestamp":"2014-09-27T00:33:59Z","natural":"tree","source":"Bing"},"geometry":{"type":"Point","coordinates":[140.3740668,37.3686738]}},{"type":"Feature","id":"node/3098058538","properties":{"kind":"tree","category":"tree","version":1,"timestamp":"2014-09-27T00:33:59Z","natural":"tree","source":"Bing"},"geometry":{"type":"Point","coordinates":[140.3741368,37.3687295]}},{"type":"Feature","id":"node/3098058540","properties":{"kind":"tree","category":"tree","version":1,"timestamp":"2014-09-27T00:33:59Z","natural":"tree","source":"Bing"},"geometry":{"type":"Point","coordinates":[140.3724755,37.3687362]}},{"type":"Feature","id":"node/3098058542","properties":{"kind":"tree","category":"tree","version":1,"timestamp":"2014-09-27T00:34:00Z","natural":"tree","source":"Bing"},"geometry":{"type":"Point","coordinates":[140.3741823,37.3687627]}},{"type":"Feature","id":"node/3098058544","properties":{"kind":"tree","category":"tree","version":1,"timestamp":"2014-09-27T00:34:00Z","natural":"tree","source":"Bing"},"geometry":{"type":"Point","coordinates":[140.3742316,37.3687898]}},{"type":"Feature","id":"node/3098058546","properties":{"kind":"tree","category":"tree","version":1,"timestamp":"2014-09-27T00:34:00Z","natural":"tree","source":"Bing"},"geometry":{"type":"Point","coordinates":[140.372505,37.368799]}},{"type":"Feature","id":"node/3098058550","properties":{"kind":"tree","category":"tree","version":1,"timestamp":"2014-09-27T00:34:00Z","natural":"tree","source":"Bing"},"geometry":{"type":"Point","coordinates":[140.3742789,37.3688229]}},{"type":"Feature","id":"node/3098058554","properties":{"kind":"tree","category":"tree","version":1,"timestamp":"2014-09-27T00:34:00Z","natural":"tree","source":"Bing"},"geometry":{"type":"Point","coordinates":[140.374332,37.3688695]}},{"type":"Feature","id":"node/3098058559","properties":{"kind":"tree","category":"tree","version":1,"timestamp":"2014-09-27T00:34:00Z","natural":"tree","source":"Bing"},"geometry":{"type":"Point","coordinates":[140.3725385,37.3688959]}},{"type":"Feature","id":"node/3098058560","properties":{"kind":"tree","category":"tree","version":1,"timestamp":"2014-09-27T00:34:00Z","natural":"tree","source":"Bing"},"geometry":{"type":"Point","coordinates":[140.3728348,37.3688892]}},{"type":"Feature","id":"node/3098058563","properties":{"kind":"tree","category":"tree","version":1,"timestamp":"2014-09-27T00:34:00Z","natural":"tree","source":"Bing"},"geometry":{"type":"Point","coordinates":[140.3728651,37.3689479]}},{"type":"Feature","id":"node/3098058566","properties":{"kind":"tree","category":"tree","version":1,"timestamp":"2014-09-27T00:34:00Z","natural":"tree","source":"Bing"},"geometry":{"type":"Point","coordinates":[140.3725773,37.3689779]}},{"type":"Feature","id":"node/3098058569","properties":{"kind":"tree","category":"tree","version":1,"timestamp":"2014-09-27T00:34:00Z","natural":"tree","source":"Bing"},"geometry":{"type":"Point","coordinates":[140.3728147,37.368993]}},{"type":"Feature","id":"node/3098058570","properties":{"kind":"tree","category":"tree","version":1,"timestamp":"2014-09-27T00:34:00Z","natural":"tree","source":"Bing"},"geometry":{"type":"Point","coordinates":[140.3728878,37.3690021]}},{"type":"Feature","id":"node/3098058572","properties":{"kind":"tree","category":"tree","version":1,"timestamp":"2014-09-27T00:34:00Z","natural":"tree","source":"Bing"},"geometry":{"type":"Point","coordinates":[140.3745062,37.3690412]}},{"type":"Feature","id":"node/3098058573","properties":{"kind":"tree","category":"tree","version":1,"timestamp":"2014-09-27T00:34:00Z","natural":"tree","source":"Bing"},"geometry":{"type":"Point","coordinates":[140.3729125,37.3690563]}},{"type":"Feature","id":"node/3098058576","properties":{"kind":"tree","category":"tree","version":1,"timestamp":"2014-09-27T00:34:01Z","natural":"tree","source":"Bing"},"geometry":{"type":"Point","coordinates":[140.3728519,37.369085]}},{"type":"Feature","id":"node/3098058577","properties":{"kind":"tree","category":"tree","version":1,"timestamp":"2014-09-27T00:34:01Z","natural":"tree","source":"Bing"},"geometry":{"type":"Point","coordinates":[140.3745365,37.3690893]}},{"type":"Feature","id":"node/3098058578","properties":{"kind":"tree","category":"tree","version":1,"timestamp":"2014-09-27T00:34:01Z","natural":"tree","source":"Bing"},"geometry":{"type":"Point","coordinates":[140.3729314,37.369124]}},{"type":"Feature","id":"node/3098058581","properties":{"kind":"tree","category":"tree","version":1,"timestamp":"2014-09-27T00:34:01Z","natural":"tree","source":"Bing"},"geometry":{"type":"Point","coordinates":[140.3745725,37.3691405]}},{"type":"Feature","id":"node/3098058583","properties":{"kind":"tree","category":"tree","version":1,"timestamp":"2014-09-27T00:34:01Z","natural":"tree","source":"Bing"},"geometry":{"type":"Point","coordinates":[140.3726673,37.3691653]}},{"type":"Feature","id":"node/3098058584","properties":{"kind":"tree","category":"tree","version":1,"timestamp":"2014-09-27T00:34:02Z","natural":"tree","source":"Bing"},"geometry":{"type":"Point","coordinates":[140.3729598,37.3691752]}},{"type":"Feature","id":"node/3098058587","properties":{"kind":"tree","category":"tree","version":1,"timestamp":"2014-09-27T00:34:02Z","natural":"tree","source":"Bing"},"geometry":{"type":"Point","coordinates":[140.3728869,37.3691911]}},{"type":"Feature","id":"node/3098058588","properties":{"kind":"tree","category":"tree","version":1,"timestamp":"2014-09-27T00:34:02Z","natural":"tree","source":"Bing"},"geometry":{"type":"Point","coordinates":[140.3746159,37.3691954]}},{"type":"Feature","id":"node/3098058590","properties":{"kind":"tree","category":"tree","version":1,"timestamp":"2014-09-27T00:34:02Z","natural":"tree","source":"Bing"},"geometry":{"type":"Point","coordinates":[140.3729863,37.3692249]}},{"type":"Feature","id":"node/3098058593","properties":{"kind":"tree","category":"tree","version":1,"timestamp":"2014-09-27T00:34:02Z","natural":"tree","source":"Bing"},"geometry":{"type":"Point","coordinates":[140.3727075,37.3692398]}},{"type":"Feature","id":"node/3098058594","properties":{"kind":"tree","category":"tree","version":1,"timestamp":"2014-09-27T00:34:02Z","natural":"tree","source":"Bing"},"geometry":{"type":"Point","coordinates":[140.3746414,37.3692486]}},{"type":"Feature","id":"node/3098058597","properties":{"kind":"tree","category":"tree","version":1,"timestamp":"2014-09-27T00:34:02Z","natural":"tree","source":"Bing"},"geometry":{"type":"Point","coordinates":[140.3746815,37.3693061]}},{"type":"Feature","id":"node/3098058602","properties":{"kind":"tree","category":"tree","version":1,"timestamp":"2014-09-27T00:34:02Z","natural":"tree","source":"Bing"},"geometry":{"type":"Point","coordinates":[140.3727531,37.3693526]}},{"type":"Feature","id":"node/3098058603","properties":{"kind":"tree","category":"tree","version":1,"timestamp":"2014-09-27T00:34:02Z","natural":"tree","source":"Bing"},"geometry":{"type":"Point","coordinates":[140.3747097,37.3693699]}},{"type":"Feature","id":"node/3098058605","properties":{"kind":"tree","category":"tree","version":1,"timestamp":"2014-09-27T00:34:02Z","natural":"tree","source":"Bing"},"geometry":{"type":"Point","coordinates":[140.3727852,37.3694293]}},{"type":"Feature","id":"node/3098058607","properties":{"kind":"tree","category":"tree","version":1,"timestamp":"2014-09-27T00:34:02Z","natural":"tree","source":"Bing"},"geometry":{"type":"Point","coordinates":[140.3747405,37.3694221]}},{"type":"Feature","id":"node/3098058610","properties":{"kind":"tree","category":"tree","version":1,"timestamp":"2014-09-27T00:34:02Z","natural":"tree","source":"Bing"},"geometry":{"type":"Point","coordinates":[140.3730886,37.3694628]}},{"type":"Feature","id":"node/3098058611","properties":{"kind":"tree","category":"tree","version":1,"timestamp":"2014-09-27T00:34:02Z","natural":"tree","source":"Bing"},"geometry":{"type":"Point","coordinates":[140.3747592,37.3694838]}},{"type":"Feature","id":"node/3098058615","properties":{"kind":"tree","category":"tree","version":1,"timestamp":"2014-09-27T00:34:02Z","natural":"tree","source":"Bing"},"geometry":{"type":"Point","coordinates":[140.3728227,37.3695258]}},{"type":"Feature","id":"node/3098058616","properties":{"kind":"tree","category":"tree","version":1,"timestamp":"2014-09-27T00:34:02Z","natural":"tree","source":"Bing"},"geometry":{"type":"Point","coordinates":[140.3730401,37.3695207]}},{"type":"Feature","id":"node/3098058617","properties":{"kind":"tree","category":"tree","version":1,"timestamp":"2014-09-27T00:34:03Z","natural":"tree","source":"Bing"},"geometry":{"type":"Point","coordinates":[140.3731038,37.369535]}},{"type":"Feature","id":"node/3098058618","properties":{"kind":"tree","category":"tree","version":1,"timestamp":"2014-09-27T00:34:03Z","natural":"tree","source":"Bing"},"geometry":{"type":"Point","coordinates":[140.3747927,37.3695435]}},{"type":"Feature","id":"node/3098058621","properties":{"kind":"tree","category":"tree","version":1,"timestamp":"2014-09-27T00:34:03Z","natural":"tree","source":"Bing"},"geometry":{"type":"Point","coordinates":[140.3728625,37.3696116]}},{"type":"Feature","id":"node/3098058622","properties":{"kind":"tree","category":"tree","version":1,"timestamp":"2014-09-27T00:34:03Z","natural":"tree","source":"Bing"},"geometry":{"type":"Point","coordinates":[140.3731246,37.3696058]}},{"type":"Feature","id":"node/3098058624","properties":{"kind":"tree","category":"tree","version":1,"timestamp":"2014-09-27T00:34:03Z","natural":"tree","source":"Bing"},"geometry":{"type":"Point","coordinates":[140.3748262,37.3696084]}},{"type":"Feature","id":"node/3098058627","properties":{"kind":"tree","category":"tree","version":1,"timestamp":"2014-09-27T00:34:03Z","natural":"tree","source":"Bing"},"geometry":{"type":"Point","coordinates":[140.3731587,37.369657]}},{"type":"Feature","id":"node/3098058628","properties":{"kind":"tree","category":"tree","version":1,"timestamp":"2014-09-27T00:34:03Z","natural":"tree","source":"Bing"},"geometry":{"type":"Point","coordinates":[140.3748516,37.3696595]}},{"type":"Feature","id":"node/3098058630","properties":{"kind":"tree","category":"tree","version":1,"timestamp":"2014-09-27T00:34:03Z","natural":"tree","source":"Bing"},"geometry":{"type":"Point","coordinates":[140.3728871,37.3696884]}},{"type":"Feature","id":"node/3098058631","properties":{"kind":"tree","category":"tree","version":1,"timestamp":"2014-09-27T00:34:03Z","natural":"tree","source":"Bing"},"geometry":{"type":"Point","coordinates":[140.3731253,37.3697014]}},{"type":"Feature","id":"node/3098058632","properties":{"kind":"tree","category":"tree","version":1,"timestamp":"2014-09-27T00:34:03Z","natural":"tree","source":"Bing"},"geometry":{"type":"Point","coordinates":[140.3731758,37.3697097]}},{"type":"Feature","id":"node/3098058633","properties":{"kind":"tree","category":"tree","version":1,"timestamp":"2014-09-27T00:34:03Z","natural":"tree","source":"Bing"},"geometry":{"type":"Point","coordinates":[140.3748811,37.3697351]}},{"type":"Feature","id":"node/3098058638","properties":{"kind":"tree","category":"tree","version":1,"timestamp":"2014-09-27T00:34:03Z","natural":"tree","source":"Bing"},"geometry":{"type":"Point","coordinates":[140.3729231,37.3697802]}},{"type":"Feature","id":"node/3098058639","properties":{"kind":"tree","category":"tree","version":1,"timestamp":"2014-09-27T00:34:03Z","natural":"tree","source":"Bing"},"geometry":{"type":"Point","coordinates":[140.3732118,37.3697789]}},{"type":"Feature","id":"node/3098058640","properties":{"kind":"tree","category":"tree","version":1,"timestamp":"2014-09-27T00:34:03Z","natural":"tree","source":"Bing"},"geometry":{"type":"Point","coordinates":[140.3748972,37.3697883]}},{"type":"Feature","id":"node/3098058643","properties":{"kind":"tree","category":"tree","version":1,"timestamp":"2014-09-27T00:34:03Z","natural":"tree","source":"Bing"},"geometry":{"type":"Point","coordinates":[140.3731518,37.3697992]}},{"type":"Feature","id":"node/3098058647","properties":{"kind":"tree","category":"tree","version":1,"timestamp":"2014-09-27T00:34:03Z","natural":"tree","source":"Bing"},"geometry":{"type":"Point","coordinates":[140.3732408,37.3698302]}},{"type":"Feature","id":"node/3098058650","properties":{"kind":"tree","category":"tree","version":1,"timestamp":"2014-09-27T00:34:03Z","natural":"tree","source":"Bing"},"geometry":{"type":"Point","coordinates":[140.3729572,37.369851]}},{"type":"Feature","id":"node/3098058652","properties":{"kind":"tree","category":"tree","version":1,"timestamp":"2014-09-27T00:34:03Z","natural":"tree","source":"Bing"},"geometry":{"type":"Point","coordinates":[140.3731935,37.3698805]}},{"type":"Feature","id":"node/3098058653","properties":{"kind":"tree","category":"tree","version":1,"timestamp":"2014-09-27T00:34:03Z","natural":"tree","source":"Bing"},"geometry":{"type":"Point","coordinates":[140.3732616,37.3698859]}},{"type":"Feature","id":"node/3098058658","properties":{"kind":"tree","category":"tree","version":1,"timestamp":"2014-09-27T00:34:04Z","natural":"tree","source":"Bing"},"geometry":{"type":"Point","coordinates":[140.37322,37.3699558]}},{"type":"Feature","id":"node/3098058659","properties":{"kind":"tree","category":"tree","version":1,"timestamp":"2014-09-27T00:34:04Z","natural":"tree","source":"Bing"},"geometry":{"type":"Point","coordinates":[140.3732862,37.3699506]}},{"type":"Feature","id":"node/3098058664","properties":{"kind":"tree","category":"tree","version":1,"timestamp":"2014-09-27T00:34:04Z","natural":"tree","source":"Bing"},"geometry":{"type":"Point","coordinates":[140.3733165,37.3700094]}},{"type":"Feature","id":"node/3098058666","properties":{"kind":"tree","category":"tree","version":1,"timestamp":"2014-09-27T00:34:04Z","natural":"tree","source":"Bing"},"geometry":{"type":"Point","coordinates":[140.3730368,37.3700406]}},{"type":"Feature","id":"node/3098058667","properties":{"kind":"tree","category":"tree","version":1,"timestamp":"2014-09-27T00:34:04Z","natural":"tree","source":"Bing"},"geometry":{"type":"Point","coordinates":[140.3732799,37.3700624]}},{"type":"Feature","id":"node/3098058668","properties":{"kind":"tree","category":"tree","version":1,"timestamp":"2014-09-27T00:34:04Z","natural":"tree","source":"Bing"},"geometry":{"type":"Point","coordinates":[140.3733426,37.3700533]}},{"type":"Feature","id":"node/3098058673","properties":{"kind":"tree","category":"tree","version":1,"timestamp":"2014-09-27T00:34:04Z","natural":"tree","source":"Bing"},"geometry":{"type":"Point","coordinates":[140.3730766,37.3701219]}},{"type":"Feature","id":"node/3098058674","properties":{"kind":"tree","category":"tree","version":1,"timestamp":"2014-09-27T00:34:04Z","natural":"tree","source":"Bing"},"geometry":{"type":"Point","coordinates":[140.37336,37.370114]}},{"type":"Feature","id":"node/3098058677","properties":{"kind":"tree","category":"tree","version":1,"timestamp":"2014-09-27T00:34:04Z","natural":"tree","source":"Bing"},"geometry":{"type":"Point","coordinates":[140.3733083,37.3701498]}},{"type":"Feature","id":"node/3098058829","properties":{"kind":"tree","category":"tree","version":1,"timestamp":"2014-09-27T00:34:06Z","natural":"tree","source":"Bing"},"geometry":{"type":"Point","coordinates":[140.3750208,37.3702106]}},{"type":"Feature","id":"node/3098058835","properties":{"kind":"tree","category":"tree","version":1,"timestamp":"2014-09-27T00:34:06Z","natural":"tree","source":"Bing"},"geometry":{"type":"Point","coordinates":[140.3750249,37.3702478]}},{"type":"Feature","id":"node/3098058837","properties":{"kind":"tree","category":"tree","version":1,"timestamp":"2014-09-27T00:34:06Z","natural":"tree","source":"Bing"},"geometry":{"type":"Point","coordinates":[140.373435,37.3702811]}},{"type":"Feature","id":"node/3098058838","properties":{"kind":"tree","category":"tree","version":1,"timestamp":"2014-09-27T00:34:06Z","natural":"tree","source":"Bing"},"geometry":{"type":"Point","coordinates":[140.3746887,37.3702862]}},{"type":"Feature","id":"node/3098058839","properties":{"kind":"tree","category":"tree","version":1,"timestamp":"2014-09-27T00:34:06Z","natural":"tree","source":"Bing"},"geometry":{"type":"Point","coordinates":[140.3747436,37.3702702]}},{"type":"Feature","id":"node/3098058845","properties":{"kind":"tree","category":"tree","version":1,"timestamp":"2014-09-27T00:34:07Z","natural":"tree","source":"Bing"},"geometry":{"type":"Point","coordinates":[140.3745494,37.3703096]}},{"type":"Feature","id":"node/3098058846","properties":{"kind":"tree","category":"tree","version":1,"timestamp":"2014-09-27T00:34:07Z","natural":"tree","source":"Bing"},"geometry":{"type":"Point","coordinates":[140.374607,37.3702936]}},{"type":"Feature","id":"node/3098058849","properties":{"kind":"tree","category":"tree","version":1,"timestamp":"2014-09-27T00:34:07Z","natural":"tree","source":"Bing"},"geometry":{"type":"Point","coordinates":[140.3731637,37.3703206]}},{"type":"Feature","id":"node/3098058850","properties":{"kind":"tree","category":"tree","version":1,"timestamp":"2014-09-27T00:34:07Z","natural":"tree","source":"Bing"},"geometry":{"type":"Point","coordinates":[140.3734604,37.3703429]}},{"type":"Feature","id":"node/3098058851","properties":{"kind":"tree","category":"tree","version":1,"timestamp":"2014-09-27T00:34:07Z","natural":"tree","source":"Bing"},"geometry":{"type":"Point","coordinates":[140.3746351,37.3703341]}},{"type":"Feature","id":"node/3098058853","properties":{"kind":"tree","category":"tree","version":1,"timestamp":"2014-09-27T00:34:07Z","natural":"tree","source":"Bing"},"geometry":{"type":"Point","coordinates":[140.3748842,37.3703213]}},{"type":"Feature","id":"node/3098058854","properties":{"kind":"tree","category":"tree","version":1,"timestamp":"2014-09-27T00:34:07Z","natural":"tree","source":"Bing"},"geometry":{"type":"Point","coordinates":[140.3749365,37.3703213]}},{"type":"Feature","id":"node/3098058855","properties":{"kind":"tree","category":"tree","version":1,"timestamp":"2014-09-27T00:34:07Z","natural":"tree","source":"Bing"},"geometry":{"type":"Point","coordinates":[140.3743136,37.3703671]}},{"type":"Feature","id":"node/3098058856","properties":{"kind":"tree","category":"tree","version":1,"timestamp":"2014-09-27T00:34:07Z","natural":"tree","source":"Bing"},"geometry":{"type":"Point","coordinates":[140.3744476,37.3703671]}},{"type":"Feature","id":"node/3098058857","properties":{"kind":"tree","category":"tree","version":1,"timestamp":"2014-09-27T00:34:07Z","natural":"tree","source":"Bing"},"geometry":{"type":"Point","coordinates":[140.3748186,37.37035]}},{"type":"Feature","id":"node/3098058858","properties":{"kind":"tree","category":"tree","version":1,"timestamp":"2014-09-27T00:34:07Z","natural":"tree","source":"Bing"},"geometry":{"type":"Point","coordinates":[140.3748842,37.3703554]}},{"type":"Feature","id":"node/3098058862","properties":{"kind":"tree","category":"tree","version":1,"timestamp":"2014-09-27T00:34:07Z","natural":"tree","source":"Bing"},"geometry":{"type":"Point","coordinates":[140.3747248,37.3703767]}},{"type":"Feature","id":"node/3098058863","properties":{"kind":"tree","category":"tree","version":1,"timestamp":"2014-09-27T00:34:07Z","natural":"tree","source":"Bing"},"geometry":{"type":"Point","coordinates":[140.3747998,37.3703979]}},{"type":"Feature","id":"node/3098058864","properties":{"kind":"tree","category":"tree","version":1,"timestamp":"2014-09-27T00:34:07Z","natural":"tree","source":"Bing"},"geometry":{"type":"Point","coordinates":[140.3741917,37.3704224]}},{"type":"Feature","id":"node/3098058868","properties":{"kind":"tree","category":"tree","version":1,"timestamp":"2014-09-27T00:34:07Z","natural":"tree","source":"Bing"},"geometry":{"type":"Point","coordinates":[140.3746378,37.3704054]}},{"type":"Feature","id":"node/3098058869","properties":{"kind":"tree","category":"tree","version":1,"timestamp":"2014-09-27T00:34:07Z","natural":"tree","source":"Bing"},"geometry":{"type":"Point","coordinates":[140.374686,37.3704065]}},{"type":"Feature","id":"node/3098058871","properties":{"kind":"tree","category":"tree","version":1,"timestamp":"2014-09-27T00:34:07Z","natural":"tree","source":"Bing"},"geometry":{"type":"Point","coordinates":[140.3740631,37.3704395]}},{"type":"Feature","id":"node/3098058872","properties":{"kind":"tree","category":"tree","version":1,"timestamp":"2014-09-27T00:34:07Z","natural":"tree","source":"Bing"},"geometry":{"type":"Point","coordinates":[140.3741328,37.3704352]}},{"type":"Feature","id":"node/3098058874","properties":{"kind":"tree","category":"tree","version":1,"timestamp":"2014-09-27T00:34:07Z","natural":"tree","source":"Bing"},"geometry":{"type":"Point","coordinates":[140.374477,37.3704405]}},{"type":"Feature","id":"node/3098058875","properties":{"kind":"tree","category":"tree","version":1,"timestamp":"2014-09-27T00:34:07Z","natural":"tree","source":"Bing"},"geometry":{"type":"Point","coordinates":[140.3745306,37.3704576]}},{"type":"Feature","id":"node/3098058876","properties":{"kind":"tree","category":"tree","version":1,"timestamp":"2014-09-27T00:34:07Z","natural":"tree","source":"Bing"},"geometry":{"type":"Point","coordinates":[140.3746003,37.3704469]}},{"type":"Feature","id":"node/3098058877","properties":{"kind":"tree","category":"tree","version":1,"timestamp":"2014-09-27T00:34:07Z","natural":"tree","source":"Bing"},"geometry":{"type":"Point","coordinates":[140.3740082,37.3704778]}},{"type":"Feature","id":"node/3098058879","properties":{"kind":"tree","category":"tree","version":1,"timestamp":"2014-09-27T00:34:07Z","natural":"tree","source":"Bing"},"geometry":{"type":"Point","coordinates":[140.3743766,37.3704671]}},{"type":"Feature","id":"node/3098058880","properties":{"kind":"tree","category":"tree","version":1,"timestamp":"2014-09-27T00:34:07Z","natural":"tree","source":"Bing"},"geometry":{"type":"Point","coordinates":[140.3744382,37.3704725]}},{"type":"Feature","id":"node/3098058881","properties":{"kind":"tree","category":"tree","version":1,"timestamp":"2014-09-27T00:34:07Z","natural":"tree","source":"Bing"},"geometry":{"type":"Point","coordinates":[140.3739627,37.3704916]}},{"type":"Feature","id":"node/3098058882","properties":{"kind":"tree","category":"tree","version":1,"timestamp":"2014-09-27T00:34:08Z","natural":"tree","source":"Bing"},"geometry":{"type":"Point","coordinates":[140.3737644,37.3705395]}},{"type":"Feature","id":"node/3098058883","properties":{"kind":"tree","category":"tree","version":1,"timestamp":"2014-09-27T00:34:08Z","natural":"tree","source":"Bing"},"geometry":{"type":"Point","coordinates":[140.3738609,37.3705214]}},{"type":"Feature","id":"node/3098058885","properties":{"kind":"tree","category":"tree","version":1,"timestamp":"2014-09-27T00:34:08Z","natural":"tree","source":"Bing"},"geometry":{"type":"Point","coordinates":[140.3742841,37.3705193]}},{"type":"Feature","id":"node/3098058886","properties":{"kind":"tree","category":"tree","version":1,"timestamp":"2014-09-27T00:34:08Z","natural":"tree","source":"Bing"},"geometry":{"type":"Point","coordinates":[140.3736693,37.3705619]}},{"type":"Feature","id":"node/3098058889","properties":{"kind":"tree","category":"tree","version":1,"timestamp":"2014-09-27T00:34:08Z","natural":"tree","source":"Bing"},"geometry":{"type":"Point","coordinates":[140.3742319,37.370547]}},{"type":"Feature","id":"node/3098058894","properties":{"kind":"tree","category":"tree","version":1,"timestamp":"2014-09-27T00:34:08Z","natural":"tree","source":"Bing"},"geometry":{"type":"Point","coordinates":[140.3740631,37.3705959]}},{"type":"Feature","id":"node/3098058895","properties":{"kind":"tree","category":"tree","version":1,"timestamp":"2014-09-27T00:34:08Z","natural":"tree","source":"Bing"},"geometry":{"type":"Point","coordinates":[140.3741221,37.37058]}},{"type":"Feature","id":"node/3098058897","properties":{"kind":"tree","category":"tree","version":1,"timestamp":"2014-09-27T00:34:08Z","natural":"tree","source":"Bing"},"geometry":{"type":"Point","coordinates":[140.3740096,37.3706162]}},{"type":"Feature","id":"node/3098058899","properties":{"kind":"tree","category":"tree","version":1,"timestamp":"2014-09-27T00:34:08Z","natural":"tree","source":"Bing"},"geometry":{"type":"Point","coordinates":[140.3735595,37.3706332]}},{"type":"Feature","id":"node/3098058901","properties":{"kind":"tree","category":"tree","version":1,"timestamp":"2014-09-27T00:34:08Z","natural":"tree","source":"Bing"},"geometry":{"type":"Point","coordinates":[140.3738729,37.3706353]}},{"type":"Feature","id":"node/3098058902","properties":{"kind":"tree","category":"tree","version":1,"timestamp":"2014-09-27T00:34:08Z","natural":"tree","source":"Bing"},"geometry":{"type":"Point","coordinates":[140.3739252,37.3706311]}},{"type":"Feature","id":"node/3098058904","properties":{"kind":"tree","category":"tree","version":1,"timestamp":"2014-09-27T00:34:08Z","natural":"tree","source":"Bing"},"geometry":{"type":"Point","coordinates":[140.3735555,37.3706609]}},{"type":"Feature","id":"node/3098058905","properties":{"kind":"tree","category":"tree","version":1,"timestamp":"2014-09-27T00:34:08Z","natural":"tree","source":"Bing"},"geometry":{"type":"Point","coordinates":[140.3737256,37.3706534]}},{"type":"Feature","id":"node/3098058906","properties":{"kind":"tree","category":"tree","version":1,"timestamp":"2014-09-27T00:34:08Z","natural":"tree","source":"Bing"},"geometry":{"type":"Point","coordinates":[140.3737926,37.3706534]}},{"type":"Feature","id":"node/3098058907","properties":{"kind":"tree","category":"tree","version":1,"timestamp":"2014-09-27T00:34:08Z","natural":"tree","source":"Bing"},"geometry":{"type":"Point","coordinates":[140.3738301,37.3706598]}},{"type":"Feature","id":"way/1106920757","properties":{"kind":"landcover","category":"leisure:pitch","version":1,"timestamp":"2022-10-25T19:26:45Z","name":"野球グラウンド","leisure":"pitch","sport":"baseball"},"geometry":{"type":"MultiPolygon","coordinates":[[[[140.3861477,37.3582982],[140.386168,37.3579087],[140.3863876,37.3577871],[140.3865132,37.3577854],[140.3867059,37.3578386],[140.3868262,37.3579614],[140.3868198,37.3580917],[140.3868177,37.3582186],[140.3867921,37.3582999],[140.3861477,37.3582982]]]]}},{"type":"Feature","id":"way/1106922102","properties":{"kind":"landcover","category":"natural:grassland","version":3,"timestamp":"2023-04-09T06:48:09Z","natural":"grassland","source":"aerial imagery"},"geometry":{"type":"MultiPolygon","coordinates":[[[[140.3819272,37.3584453],[140.3820596,37.3584466],[140.3821916,37.3584415],[140.3829133,37.3585041],[140.3828282,37.358807],[140.3819532,37.3586801],[140.3819377,37.3585634],[140.3819272,37.3584453]]]]}},{"type":"Feature","id":"way/1106923546","properties":{"kind":"landcover","category":"leisure:park","version":1,"timestamp":"2022-10-25T19:35:38Z","leisure":"park"},"geometry":{"type":"MultiPolygon","coordinates":[[[[140.3886531,37.3619239],[140.3886624,37.3618866],[140.3887429,37.3618887],[140.3887952,37.3618674],[140.3888717,37.3618589],[140.3889253,37.3618344],[140.3890701,37.3619559],[140.3886531,37.3619239]]]]}},{"type":"Feature","id":"way/1106923654","properties":{"kind":"landcover","category":"leisure:park","version":2,"timestamp":"2024-03-16T13:24:26Z","name":"神明下公園","leisure":"park"},"geometry":{"type":"MultiPolygon","coordinates":[[[[140.389094,37.3633275],[140.3895756,37.3632389],[140.3896465,37.3634511],[140.3891464,37.3635317],[140.3891346,37.3634793],[140.389094,37.3633275]]]]}},{"type":"Feature","id":"way/1106923703","properties":{"kind":"landcover","category":"leisure:park","version":1,"timestamp":"2022-10-25T19:37:05Z","leisure":"park"},"geometry":{"type":"MultiPolygon","coordinates":[[[[140.3875778,37.3654335],[140.3878811,37.3653871],[140.3879132,37.3655046],[140.3876116,37.3655449],[140.3875778,37.3654335]]]]}},{"type":"Feature","id":"way/1106928873","properties":{"kind":"landcover","category":"leisure:park","version":3,"timestamp":"2023-04-09T06:51:55Z","name":"心静緑感広場","leisure":"park","source":"aerial imagery"},"geometry":{"type":"MultiPolygon","coordinates":[[[[140.3810366,37.3603288],[140.3822394,37.3603871],[140.3822076,37.3607689],[140.3821852,37.361063],[140.3821646,37.3612397],[140.3820724,37.3612337],[140.3818393,37.361231],[140.3811262,37.3608308],[140.3811023,37.3607746],[140.3810677,37.360688],[140.3810366,37.3603288]]]]}},{"type":"Feature","id":"way/1106928991","properties":{"kind":"landcover","category":"leisure:park","version":2,"timestamp":"2022-10-25T20:26:03Z","leisure":"park"},"geometry":{"type":"MultiPolygon","coordinates":[[[[140.382519,37.3611457],[140.382541,37.3608503],[140.3828502,37.3608623],[140.382813,37.3611578],[140.382519,37.3611457]]]]}},{"type":"Feature","id":"way/1106929669","properties":{"kind":"landcover","category":"leisure:park","version":2,"timestamp":"2023-03-10T20:51:25Z","name":"憩いの広場","leisure":"park"},"geometry":{"type":"MultiPolygon","coordinates":[[[[140.3818497,37.359184],[140.3818632,37.3588993],[140.3827689,37.3590242],[140.382743,37.3592234],[140.3818497,37.359184]]]]}},{"type":"Feature","id":"way/1106933224","properties":{"kind":"landcover","category":"landuse:grass","version":2,"timestamp":"2023-04-09T06:48:09Z","landuse":"grass","source":"aerial imagery"},"geometry":{"type":"MultiPolygon","coordinates":[[[[140.3835398,37.3596728],[140.3835618,37.3595426],[140.3838761,37.3595614],[140.3838744,37.3596957],[140.3835398,37.3596728]]]]}},{"type":"Feature","id":"way/1106933225","properties":{"kind":"landcover","category":"landuse:grass","version":1,"timestamp":"2022-10-25T20:20:30Z","landuse":"grass"},"geometry":{"type":"MultiPolygon","coordinates":[[[[140.3867249,37.36021],[140.3877607,37.3606076],[140.3876492,37.3607419],[140.3867249,37.36021]]]]}},{"type":"Feature","id":"way/1106933392","properties":{"kind":"landcover","category":"landuse:grass","version":1,"timestamp":"2022-10-25T20:20:57Z","landuse":"grass"},"geometry":{"type":"MultiPolygon","coordinates":[[[[140.3877421,37.3607929],[140.3877962,37.3607325],[140.3878266,37.3607285],[140.3878266,37.3607849],[140.3878925,37.3607983],[140.3879077,37.3607875],[140.387928,37.3607849],[140.3878942,37.3609098],[140.3877421,37.3607929]]]]}},{"type":"Feature","id":"way/1106934176","properties":{"kind":"landcover","category":"leisure:park","version":2,"timestamp":"2022-10-25T20:26:32Z","leisure":"park"},"geometry":{"type":"MultiPolygon","coordinates":[[[[140.3831242,37.3611985],[140.3832002,37.3609124],[140.3833726,37.3609326],[140.3832391,37.3612348],[140.3831242,37.3611985]]]]}},{"type":"Feature","id":"way/1106935332","properties":{"kind":"landcover","category":"leisure:park","version":1,"timestamp":"2022-10-25T20:27:58Z","leisure":"park"},"geometry":{"type":"MultiPolygon","coordinates":[[[[140.380508,37.359556],[140.3805335,37.3592751],[140.3814149,37.3593089],[140.3813851,37.3595898],[140.380508,37.359556]]]]}},{"type":"Feature","id":"way/1106936038","properties":{"kind":"landcover","category":"landuse:grass","version":1,"timestamp":"2022-10-25T20:30:58Z","landuse":"grass"},"geometry":{"type":"MultiPolygon","coordinates":[[[[140.3808079,37.3587613],[140.3809079,37.3585227],[140.3814827,37.3586479],[140.3814018,37.3588171],[140.3808079,37.3587613]]]]}},{"type":"Feature","id":"way/1106936058","properties":{"kind":"landcover","category":"landuse:grass","version":2,"timestamp":"2023-04-09T06:48:09Z","landuse":"grass","source":"aerial imagery"},"geometry":{"type":"MultiPolygon","coordinates":[[[[140.3819127,37.3588527],[140.3819681,37.3587054],[140.3828409,37.3588662],[140.3827941,37.358966],[140.3819127,37.3588527]]]]}},{"type":"Feature","id":"way/1106936928","properties":{"kind":"landcover","category":"leisure:pitch","version":1,"timestamp":"2022-10-25T20:35:08Z","leisure":"pitch","sport":"archery"},"geometry":{"type":"MultiPolygon","coordinates":[[[[140.3874116,37.3583281],[140.3876032,37.3577629],[140.3881461,37.3578864],[140.3878714,37.3584127],[140.3874116,37.3583281]]]]}},{"type":"Feature","id":"way/1106936929","properties":{"kind":"landcover","category":"landuse:grass","version":2,"timestamp":"2023-04-09T06:44:53Z","name":"日本大学工学部 グラウンド","landuse":"grass"},"geometry":{"type":"MultiPolygon","coordinates":[[[[140.3855502,37.3576212],[140.3857873,37.3571284],[140.3869624,37.357504],[140.387533,37.3577155],[140.3873435,37.3583416],[140.3868177,37.3583095],[140.3868283,37.3582384],[140.3868602,37.3578898],[140.3864515,37.3577325],[140.3862173,37.3578323],[140.3855502,37.3576212]]]]}},{"type":"Feature","id":"way/1106936930","properties":{"kind":"landcover","category":"landuse:grass","version":2,"timestamp":"2023-04-09T06:44:53Z","name":"日本大学工学部 グラウンド","landuse":"grass"},"geometry":{"type":"MultiPolygon","coordinates":[[[[140.3857511,37.3581487],[140.3858767,37.3577714],[140.3861534,37.3578678],[140.3861236,37.3582503],[140.3857511,37.3581487]]]]}},{"type":"Feature","id":"way/1106936931","properties":{"kind":"landcover","category":"leisure:pitch","version":1,"timestamp":"2022-10-25T20:35:08Z","leisure":"pitch"},"geometry":{"type":"MultiPolygon","coordinates":[[[[140.3848655,37.3573906],[140.3850507,37.3568982],[140.3856596,37.3570996],[140.3854275,37.3575446],[140.3848655,37.3573906]]]]}},{"type":"Feature","id":"way/1106937502","properties":{"kind":"landcover","category":"landuse:grass","version":1,"timestamp":"2022-10-25T20:38:27Z","landuse":"grass"},"geometry":{"type":"MultiPolygon","coordinates":[[[[140.3828601,37.3597055],[140.3828686,37.3596463],[140.3833071,37.3596666],[140.3832944,37.3597275],[140.3828601,37.3597055]]]]}},{"type":"Feature","id":"way/1106937802","properties":{"kind":"landcover","category":"landuse:grass","version":2,"timestamp":"2023-04-09T06:48:09Z","landuse":"grass","source":"aerial imagery"},"geometry":{"type":"MultiPolygon","coordinates":[[[[140.3823896,37.3600608],[140.3826259,37.360071],[140.3826195,37.3602757],[140.3823917,37.3602707],[140.3823896,37.3600608]]]]}},{"type":"Feature","id":"way/1106937803","properties":{"kind":"landcover","category":"landuse:grass","version":2,"timestamp":"2023-04-09T06:48:09Z","landuse":"grass","source":"aerial imagery"},"geometry":{"type":"MultiPolygon","coordinates":[[[[140.3823428,37.3606903],[140.3823619,37.3603366],[140.3825833,37.3603654],[140.3825386,37.3606988],[140.3823428,37.3606903]]]]}},{"type":"Feature","id":"way/1106937804","properties":{"kind":"landcover","category":"landuse:grass","version":1,"timestamp":"2022-10-25T20:40:03Z","landuse":"grass"},"geometry":{"type":"MultiPolygon","coordinates":[[[[140.3822895,37.3611099],[140.382347,37.3607766],[140.3825259,37.3607969],[140.3824875,37.3611302],[140.3822895,37.3611099]]]]}},{"type":"Feature","id":"way/1106939382","properties":{"kind":"landcover","category":"leisure:park","version":1,"timestamp":"2022-10-25T20:47:54Z","leisure":"park"},"geometry":{"type":"MultiPolygon","coordinates":[[[[140.3856325,37.3624522],[140.3856595,37.3624468],[140.3858877,37.3624602],[140.3859738,37.3624777],[140.3860735,37.3624952],[140.3860769,37.3625207],[140.3860093,37.3625489],[140.3859586,37.3625086],[140.3857626,37.3624978],[140.3857271,37.3625677],[140.3856325,37.362565],[140.3856325,37.3624522]]]]}},{"type":"Feature","id":"way/1107638493","properties":{"kind":"landcover","category":"leisure:park","version":1,"timestamp":"2022-10-28T05:09:45Z","leisure":"park"},"geometry":{"type":"MultiPolygon","coordinates":[[[[140.3823135,37.3626631],[140.3823792,37.362613],[140.3825119,37.3626908],[140.3824489,37.3627431],[140.3823135,37.3626631]]]]}},{"type":"Feature","id":"way/1153352280","properties":{"kind":"landcover","category":"landuse:grass","version":3,"timestamp":"2023-04-09T06:48:09Z","landuse":"grass","source":"aerial imagery"},"geometry":{"type":"MultiPolygon","coordinates":[[[[140.3815522,37.3603222],[140.381594,37.3597651],[140.3820057,37.3597896],[140.3821239,37.3598348],[140.3821862,37.3599265],[140.3821927,37.3599993],[140.382198,37.3603529],[140.3818694,37.3603368],[140.3815522,37.3603222]]]]}},{"type":"Feature","id":"way/1153353346","properties":{"kind":"landcover","category":"leisure:park","version":1,"timestamp":"2023-03-10T20:59:05Z","name":"金屋上川原ちびっ子広場","leisure":"park"},"geometry":{"type":"MultiPolygon","coordinates":[[[[140.3902212,37.3674335],[140.3903623,37.3674138],[140.3903952,37.3675521],[140.3902577,37.3675671],[140.3902212,37.3674335]]]]}},{"type":"Feature","id":"way/1160809461","properties":{"kind":"landcover","category":"leisure:park","version":1,"timestamp":"2023-04-09T05:53:00Z","name":"浮洲ヶ岡公園","leisure":"park"},"geometry":{"type":"MultiPolygon","coordinates":[[[[140.383193,37.3723234],[140.3839063,37.3720568],[140.3842482,37.3729223],[140.3843958,37.3731639],[140.3837185,37.3733686],[140.383193,37.3723234]]]]}},{"type":"Feature","id":"way/1160809550","properties":{"kind":"landcover","category":"leisure:park","version":1,"timestamp":"2023-04-09T05:56:17Z","name":"池田公園","leisure":"park"},"geometry":{"type":"MultiPolygon","coordinates":[[[[140.3826755,37.3756161],[140.3831592,37.3754894],[140.3834602,37.3761314],[140.3829379,37.3761682],[140.3826755,37.3756161]]]]}},{"type":"Feature","id":"way/1160809559","properties":{"kind":"landcover","category":"leisure:park","version":1,"timestamp":"2023-04-09T05:57:06Z","name":"深田公園","leisure":"park"},"geometry":{"type":"MultiPolygon","coordinates":[[[[140.3796662,37.3749137],[140.3801649,37.3748842],[140.3802309,37.3753166],[140.3797568,37.3753461],[140.3796662,37.3749137]]]]}},{"type":"Feature","id":"way/1160809574","properties":{"kind":"landcover","category":"leisure:park","version":1,"timestamp":"2023-04-09T05:58:28Z","name":"篠原公園","leisure":"park"},"geometry":{"type":"MultiPolygon","coordinates":[[[[140.37609,37.3673936],[140.3766395,37.3671865],[140.3768403,37.3675387],[140.3763151,37.3678534],[140.37609,37.3673936]]]]}},{"type":"Feature","id":"way/1297205626","properties":{"kind":"landcover","category":"leisure:park","version":1,"timestamp":"2024-06-29T00:18:54Z","name":"笹川一丁目","leisure":"park"},"geometry":{"type":"MultiPolygon","coordinates":[[[[140.3700376,37.3609663],[140.3702833,37.3609088],[140.3703487,37.3610795],[140.370103,37.3611351],[140.3700376,37.3609663]]]]}},{"type":"Feature","id":"way/1297205777","properties":{"kind":"landcover","category":"leisure:park","version":1,"timestamp":"2024-06-29T00:21:09Z","leisure":"park"},"geometry":{"type":"MultiPolygon","coordinates":[[[[140.3810923,37.3554033],[140.3811379,37.3552753],[140.3812237,37.3551794],[140.3813042,37.3551218],[140.3814758,37.3550429],[140.3816126,37.3550174],[140.3815992,37.3555269],[140.381103,37.3555205],[140.3810923,37.3554033]]]]}},{"type":"Feature","id":"way/1297205848","properties":{"kind":"landcover","category":"leisure:park","version":1,"timestamp":"2024-06-29T00:22:51Z","name":"築地公園","leisure":"park"},"geometry":{"type":"MultiPolygon","coordinates":[[[[140.3815826,37.3688894],[140.3821284,37.368736],[140.3824267,37.3693887],[140.3819055,37.3695575],[140.3815826,37.3688894]]]]}},{"type":"Feature","id":"way/305207861","properties":{"kind":"landcover","category":"landuse:grass","version":1,"timestamp":"2014-09-27T00:34:21Z","landuse":"grass","source":"Bing"},"geometry":{"type":"MultiPolygon","coordinates":[[[[140.3720792,37.3710552],[140.3720802,37.3710326],[140.3720906,37.371007],[140.3721096,37.3709912],[140.373249,37.3706841],[140.3732802,37.3706841],[140.3733115,37.3706939],[140.3733332,37.3707142],[140.3733323,37.3707405],[140.373319,37.3707631],[140.3733029,37.3707736],[140.3732802,37.3707827],[140.3721681,37.3710916],[140.3721399,37.3710898],[140.3721124,37.3710845],[140.3720925,37.3710725],[140.3720792,37.3710552]]]]}},{"type":"Feature","id":"way/307994794","properties":{"kind":"landcover","category":"leisure:pitch","version":1,"timestamp":"2014-10-16T06:43:11Z","leisure":"pitch","sport":"baseball","source":"Bing"},"geometry":{"type":"MultiPolygon","coordinates":[[[[140.3874574,37.3597795],[140.3874765,37.3597091],[140.3875004,37.3596331],[140.3875435,37.3595494],[140.3875865,37.3594829],[140.3876416,37.3594182],[140.3876894,37.3593726],[140.3877571,37.3593179],[140.3878767,37.359257],[140.387982,37.3592171],[140.3881159,37.3591829],[140.3882427,37.3591734],[140.388336,37.3591734],[140.3884927,37.3591858],[140.3885919,37.3592057],[140.3887118,37.3592563],[140.388827,37.3593202],[140.3889052,37.3593787],[140.3889555,37.3594205],[140.3888311,37.360238],[140.3886772,37.3603327],[140.3876535,37.3602338],[140.3875865,37.3601654],[140.3875339,37.3600856],[140.3874933,37.3600133],[140.3874646,37.3599449],[140.3874574,37.3598403],[140.3874574,37.3597795]]]]}},{"type":"Feature","id":"way/307994800","properties":{"kind":"landcover","category":"leisure:pitch","version":1,"timestamp":"2014-10-16T06:43:12Z","leisure":"pitch","sport":"tennis","source":"Bing"},"geometry":{"type":"MultiPolygon","coordinates":[[[[140.384627,37.3578589],[140.3847418,37.357513],[140.385866,37.3577488],[140.3857512,37.3580947],[140.384627,37.3578589]]]]}},{"type":"Feature","id":"way/307994801","properties":{"kind":"landcover","category":"leisure:pitch","version":1,"timestamp":"2014-10-16T06:43:12Z","leisure":"pitch","sport":"tennis","source":"Bing"},"geometry":{"type":"MultiPolygon","coordinates":[[[[140.3832033,37.3580445],[140.3833588,37.3577191],[140.3839067,37.3578845],[140.3837513,37.3582099],[140.3832033,37.3580445]]]]}},{"type":"Feature","id":"way/307994808","properties":{"kind":"landcover","category":"leisure:pitch","version":3,"timestamp":"2024-03-16T13:30:12Z","leisure":"pitch","sport":"soccer"},"geometry":{"type":"MultiPolygon","coordinates":[[[[140.3874756,37.3591005],[140.3875254,37.3584602],[140.3887296,37.3585193],[140.3886798,37.3591597],[140.3874756,37.3591005]]]]}},{"type":"Feature","id":"way/307994809","properties":{"kind":"landcover","category":"leisure:pitch","version":1,"timestamp":"2014-10-16T06:43:13Z","leisure":"pitch","sport":"baseball","source":"Bing"},"geometry":{"type":"MultiPolygon","coordinates":[[[[140.3805363,37.3583603],[140.3805735,37.3575699],[140.38171,37.3576505],[140.3818149,37.3577581],[140.381683,37.3583899],[140.3815037,37.3584464],[140.3805363,37.3583603]]]]}},{"type":"Feature","id":"way/345666698","properties":{"kind":"landcover","category":"leisure:park","version":1,"timestamp":"2015-05-17T07:55:12Z","leisure":"park"},"geometry":{"type":"MultiPolygon","coordinates":[[[[140.3700223,37.3789287],[140.3700254,37.3788957],[140.3700484,37.3788746],[140.3700855,37.3788593],[140.3701177,37.3788578],[140.3701635,37.378879],[140.3701982,37.3789095],[140.3702088,37.3789695],[140.3702002356884,37.379],[140.37003390143738,37.379],[140.3700304,37.3789804],[140.3700223,37.3789287]]]]}},{"type":"Feature","id":"way/553159090","properties":{"kind":"landcover","category":"leisure:park","version":1,"timestamp":"2018-01-15T02:46:25Z","name":"日出山公園","leisure":"park"},"geometry":{"type":"MultiPolygon","coordinates":[[[[140.3793767,37.3703512],[140.3799923,37.3701756],[140.3802297,37.3707136],[140.3795698,37.3708905],[140.3793767,37.3703512]]]]}},{"type":"Feature","id":"way/854135711","properties":{"kind":"landcover","category":"landuse:grass","version":1,"timestamp":"2020-10-02T06:50:10Z","name":"打ちっ放し","landuse":"grass"},"geometry":{"type":"MultiPolygon","coordinates":[[[[140.3881884,37.3583513],[140.3882236,37.3579033],[140.3891747,37.3581763],[140.3890954,37.3584843],[140.3881884,37.3583513]]]]}},{"type":"Feature","id":"way/944909862","properties":{"kind":"landcover","category":"leisure:pitch","version":1,"timestamp":"2021-05-20T01:49:50Z","leisure":"pitch","sport":"tennis"},"geometry":{"type":"MultiPolygon","coordinates":[[[[140.3847626,37.3639326],[140.3851166,37.3638046],[140.3853406,37.3642193],[140.3849731,37.3643408],[140.3847626,37.3639326]]]]}},{"type":"Feature","id":"way/944909863","properties":{"kind":"landcover","category":"leisure:pitch","version":1,"timestamp":"2021-05-20T01:49:50Z","leisure":"pitch","sport":"multi"},"geometry":{"type":"MultiPolygon","coordinates":[[[[140.3851461,37.3637833],[140.3854787,37.363649],[140.3859293,37.3634508],[140.3862298,37.3638281],[140.3857295,37.3640818],[140.3854787,37.3641958],[140.3853902,37.3642182],[140.3851461,37.3637833]]]]}},{"type":"Feature","id":"way/944909864","properties":{"kind":"landcover","category":"leisure:pitch","version":1,"timestamp":"2021-05-20T01:49:50Z","leisure":"pitch","sport":"multi"},"geometry":{"type":"MultiPolygon","coordinates":[[[[140.386093,37.3634103],[140.3868413,37.3628112],[140.3871605,37.3630958],[140.3872329,37.3632269],[140.3864551,37.3637108],[140.386093,37.3634103]]]]}},{"type":"Feature","id":"way/946664372","properties":{"kind":"landcover","category":"leisure:pitch","version":2,"timestamp":"2022-10-25T20:35:08Z","leisure":"pitch","sport":"archery"},"geometry":{"type":"MultiPolygon","coordinates":[[[[140.3818852,37.3571963],[140.381889,37.3571488],[140.3819469,37.3571517],[140.3819483,37.3571318],[140.3823161,37.3571496],[140.3822994,37.3572466],[140.3819422,37.3572202],[140.3819437,37.3571992],[140.3818852,37.3571963]]]]}}]}
